NORAD_CAT_ID,OBJECT_NAME,OBJECT_TYPE,EPOCH,MEAN_MOTION,ECCENTRICITY,INCLINATION,RA_OF_ASC_NODE,ARG_OF_PERICENTER,MEAN_ANOMALY,BSTAR,MEAN_MOTION_DOT,MEAN_MOTION_DDOT,TLE_LINE0,TLE_LINE1,TLE_LINE2,SEMIMAJOR_AXIS,PERIOD,APOGEE,PERIGEE,DECAYED
55660.0,STARLINK-5467,PAYLOAD,2023-09-13 12:22:54,14.99283769,0.000297,69.9989,294.4897,264.3404,95.7417,0.0003327,3.978e-05,0.0,0 STARLINK-5467,1 55660U 23021AJ  23256.51591170  .00003978  00000-0  33270-3 0  9992,2 55660  69.9989 294.4897 0002970 264.3404  95.7417 14.99283769 33241,6947.245,96.046,571.173,567.047,0.0
55660.0,STARLINK-5467,PAYLOAD,2023-09-13 20:23:14,14.99390687,0.000284,70.0012,293.649,264.6254,95.4582,-0.0017116,-0.00021023,0.0,0 STARLINK-5467,1 55660U 23021AJ  23256.84947505 -.00021023  00000-0 -17116-2 0  9998,2 55660  70.0012 293.6490 0002840 264.6254  95.4582 14.99390687 33296,6946.915,96.039,570.753,566.807,0.0
55660.0,STARLINK-5467,PAYLOAD,2023-09-14 12:24:01,14.99271899,0.000285,69.9996,291.9629,265.6556,94.4278,0.00014633,1.696e-05,0.0,0 STARLINK-5467,1 55660U 23021AJ  23257.51668033  .00001696  00000-0  14633-3 0  9993,2 55660  69.9996 291.9629 0002850 265.6556  94.4278 14.99271899 33391,6947.282,96.047,571.127,567.167,0.0
55660.0,STARLINK-5467,PAYLOAD,2023-09-15 04:24:44,14.9929163,0.0003178,69.999,290.2772,269.8864,90.1931,-3.029e-05,-4.64e-06,0.0,0 STARLINK-5467,1 55660U 23021AJ  23258.18384275 -.00000464  00000-0 -30290-4 0  9992,2 55660  69.9990 290.2772 0003178 269.8864  90.1931 14.99291630 33190,6947.221,96.045,571.294,566.878,0.0
55660.0,STARLINK-5467,PAYLOAD,2023-09-15 12:25:05,14.99292672,0.0002838,69.9997,289.4362,259.2453,100.8387,-2.0614e-05,-3.46e-06,0.0,0 STARLINK-5467,1 55660U 23021AJ  23258.51742733 -.00000346  00000-0 -20614-4 0  9994,2 55660  69.9997 289.4362 0002838 259.2453 100.8387 14.99292672 33541,6947.218,96.045,571.054,567.111,0.0
55660.0,STARLINK-5467,PAYLOAD,2023-09-16 02:49:44,14.9930109,0.000312,69.9982,287.919,267.673,92.4072,6.2983e-05,6.77e-06,0.0,0 STARLINK-5467,1 55660U 23021AJ  23259.11787256  .00000677  00000-0  62983-4 0  9990,2 55660  69.9982 287.9190 0003120 267.6730  92.4072 14.99301090 33332,6947.191,96.045,571.224,566.889,0.0
55660.0,STARLINK-5467,PAYLOAD,2023-09-16 12:26:10,14.9929624,0.0002746,69.9987,286.9084,261.3562,98.7287,0.00022378,2.645e-05,0.0,0 STARLINK-5467,1 55660U 23021AJ  23259.51817300  .00002645  00000-0  22378-3 0  9998,2 55660  69.9987 286.9084 0002746 261.3562  98.7287 14.99296240 33691,6947.206,96.045,570.979,567.164,0.0
55660.0,STARLINK-5467,PAYLOAD,2023-09-17 10:51:10,14.99306147,0.00031,69.9992,284.5497,260.0866,99.9943,0.00011242,1.282e-05,0.0,0 STARLINK-5467,1 55660U 23021AJ  23260.45220230  .00001282  00000-0  11242-3 0  9997,2 55660  69.9992 284.5497 0003100 260.0866  99.9943 14.99306147 33833,6947.176,96.044,571.194,566.887,0.0
55660.0,STARLINK-5467,PAYLOAD,2023-09-18 10:52:15,14.99303601,0.0003139,69.9998,282.0239,266.4799,93.6002,-4.4363e-05,-6.37e-06,0.0,0 STARLINK-5467,1 55660U 23021AJ  23261.45295710 -.00000637  00000-0 -44363-4 0  9999,2 55660  69.9998 282.0239 0003139 266.4799  93.6002 14.99303601 33685,6947.184,96.045,571.229,566.868,0.0
55660.0,STARLINK-5467,PAYLOAD,2023-09-18 18:52:36,14.99305341,0.0003133,69.9997,281.1803,269.2462,90.8339,-3.8381e-05,-5.64e-06,0.0,0 STARLINK-5467,1 55660U 23021AJ  23261.78653894 -.00000564  00000-0 -38381-4 0  9998,2 55660  69.9997 281.1803 0003133 269.2462  90.8339 14.99305341 34038,6947.178,96.044,571.22,566.867,0.0
55660.0,STARLINK-5467,PAYLOAD,2023-09-19 10:53:39,14.9906875,0.0003322,69.9995,279.4964,269.7806,90.2972,-0.0025509,-0.00030983,0.0,0 STARLINK-5467,1 55660U 23021AJ  23262.45392820 -.00030983  00000-0 -25509-2 0  9996,2 55660  69.9995 279.4964 0003322 269.7806  90.2972 14.99068750 33835,6947.909,96.06,572.082,567.466,0.0
55660.0,STARLINK-5467,PAYLOAD,2023-09-20 02:55:01,14.98745245,0.0002758,69.9992,277.8128,261.2457,98.839,-0.0052159,-0.00062444,0.0,0 STARLINK-5467,1 55660U 23021AJ  23263.12154306 -.00062444  00000-0 -52159-2 0  9994,2 55660  69.9992 277.8128 0002758 261.2457  98.8390 14.98745245 33936,6948.909,96.08,572.691,568.858,0.0
55660.0,STARLINK-5467,PAYLOAD,2023-09-20 10:55:35,14.98706449,0.0003209,69.9993,276.9743,266.7222,93.357,-0.005164,-0.00061769,0.0,0 STARLINK-5467,1 55660U 23021AJ  23263.45526980 -.00061769  00000-0 -51640-2 0  9994,2 55660  69.9993 276.9743 0003209 266.7222  93.3570 14.98706449 33980,6949.029,96.083,573.124,568.664,0.0
55660.0,STARLINK-5467,PAYLOAD,2023-09-20 18:56:09,14.98673756,0.0003264,69.9988,276.1321,271.1609,88.9176,-0.0050113,-0.00059911,0.0,0 STARLINK-5467,1 55660U 23021AJ  23263.78900310 -.00059911  00000-0 -50113-2 0  9993,2 55660  69.9988 276.1321 0003264 271.1609  88.9176 14.98673756 34334,6949.13,96.085,573.263,568.727,0.0
55660.0,STARLINK-5467,PAYLOAD,2023-09-21 01:20:38,14.9864641,0.0003235,69.9989,275.4589,267.2895,92.7894,-0.0048246,-0.0005766,0.0,0 STARLINK-5467,1 55660U 23021AJ  23264.05599578 -.00057660  00000-0 -48246-2 0  9997,2 55660  69.9989 275.4589 0003235 267.2895  92.7894 14.98646410 34072,6949.215,96.087,573.328,568.832,0.0
55660.0,STARLINK-5467,PAYLOAD,2023-09-21 09:21:14,14.98611893,0.0003957,69.999,274.6176,281.1141,78.9573,-0.004494,-0.00053701,0.0,0 STARLINK-5467,1 55660U 23021AJ  23264.38974784 -.00053701  00000-0 -44940-2 0  9998,2 55660  69.9990 274.6176 0003957 281.1141  78.9573 14.98611893 34120,6949.321,96.089,573.936,568.436,0.0
55660.0,STARLINK-5467,PAYLOAD,2023-09-21 10:57:21,14.98608517,0.0003723,69.999,274.4492,277.8281,82.2455,-0.0044824,-0.00053558,0.0,0 STARLINK-5467,1 55660U 23021AJ  23264.45649881 -.00053558  00000-0 -44824-2 0  9994,2 55660  69.9990 274.4492 0003723 277.8281  82.2455 14.98608517 34437,6949.332,96.089,573.784,568.609,0.0
55660.0,STARLINK-5467,PAYLOAD,2023-09-22 04:34:51,14.98330441,0.0002957,69.9989,272.5975,270.351,89.7311,7.1658e-05,7.62e-06,0.0,0 STARLINK-5467,1 55660U 23021AJ  23265.19087660  .00000762  00000-0  71658-4 0  9991,2 55660  69.9989 272.5975 0002957 270.3510  89.7311 14.98330441 34241,6950.192,96.107,574.112,570.001,0.0
55660.0,STARLINK-5467,PAYLOAD,2023-09-22 14:00:01,14.98348789,0.0002952,70.0007,271.607,273.7176,42.7299,-0.0034469,-0.00041001,0.0,0 STARLINK-5467,1 55660U 23021AJ  23265.58334491 -.00041001  00000-0 -34469-2 0  9991,2 55660  70.0007 271.6070 0002952 273.7176  42.7299 14.98348789  5832,6950.135,96.106,574.051,569.948,0.0
55660.0,STARLINK-5467,PAYLOAD,2023-09-22 22:00:00,14.9829856,0.0002928,70.0008,270.7667,266.6405,47.3034,0.0056317,0.00067701,0.0,0 STARLINK-5467,1 55660U 23021AJ  23265.91667824  .00067701  00000-0  56317-2 0  9996,2 55660  70.0008 270.7667 0002928 266.6405  47.3034 14.98298560  5697,6950.29,96.109,574.19,570.12,0.0
55660.0,STARLINK-5467,PAYLOAD,2023-09-23 09:25:16,14.98330045,0.0002775,69.9993,269.5671,270.0024,90.0817,1.643e-05,1.03e-06,0.0,0 STARLINK-5467,1 55660U 23021AJ  23266.39255723  .00000103  00000-0  16430-4 0  9997,2 55660  69.9993 269.5671 0002775 270.0024  90.0817 14.98330045 34426,6950.193,96.107,573.986,570.129,0.0
55660.0,STARLINK-5467,PAYLOAD,2023-09-24 09:27:17,14.98330075,0.0002801,69.9993,267.0419,269.2495,90.8343,-3.9619e-05,-5.66e-06,0.0,0 STARLINK-5467,1 55660U 23021AJ  23267.39395797 -.00000566  00000-0 -39619-4 0  9993,2 55660  69.9993 267.0419 0002801 269.2495  90.8343 14.98330075 34572,6950.193,96.107,574.004,570.111,0.0
55660.0,STARLINK-5467,PAYLOAD,2023-09-24 12:39:33,14.98331303,0.000283,69.9993,266.7051,269.9087,90.1748,-2.6498e-05,-4.09e-06,0.0,0 STARLINK-5467,1 55660U 23021AJ  23267.52747675 -.00000409  00000-0 -26498-4 0  9991,2 55660  69.9993 266.7051 0002830 269.9087  90.1748 14.98331303 34898,6950.189,96.107,574.021,570.087,0.0
55660.0,STARLINK-5467,PAYLOAD,2023-09-25 09:29:18,14.98331869,0.0002892,69.9992,264.5171,269.4679,90.6148,2.0423e-05,1.51e-06,0.0,0 STARLINK-5467,1 55660U 23021AJ  23268.39535436  .00000151  00000-0  20423-4 0  9991,2 55660  69.9992 264.5171 0002892 269.4679  90.6148 14.98331869 34724,6950.187,96.107,574.062,570.042,0.0
55660.0,STARLINK-5467,PAYLOAD,2023-09-25 17:29:58,14.9833148,0.000292,69.9993,263.6752,269.85,90.2325,3.1935e-05,2.88e-06,0.0,0 STARLINK-5467,1 55660U 23021AJ  23268.72915373  .00000288  00000-0  31935-4 0  9991,2 55660  69.9993 263.6752 0002920 269.8500  90.2325 14.98331480 35070,6950.188,96.107,574.083,570.024,0.0
55660.0,STARLINK-5467,PAYLOAD,2023-09-26 09:31:19,14.98335528,0.0002947,69.9993,261.9919,270.0772,90.0049,7.8322e-05,8.42e-06,0.0,0 STARLINK-5467,1 55660U 23021AJ  23269.39674839  .00000842  00000-0  78322-4 0  9991,2 55660  69.9993 261.9919 0002947 270.0772  90.0049 14.98335528 34875,6950.176,96.107,574.089,569.993,0.0
55660.0,STARLINK-5467,PAYLOAD,2023-09-27 01:32:40,14.98326408,0.0002857,69.9993,260.308,269.0136,91.0695,-6.4268e-05,-8.6e-06,0.0,0 STARLINK-5467,1 55660U 23021AJ  23270.06435759 -.00000860  00000-0 -64268-4 0  9999,2 55660  69.9993 260.3080 0002857 269.0136  91.0695 14.98326408 34975,6950.204,96.107,574.055,570.083,0.0
55660.0,STARLINK-5467,PAYLOAD,2023-09-27 09:33:20,14.98326503,0.0002925,69.9993,259.4669,270.0339,90.0484,-6.2764e-05,-8.42e-06,0.0,0 STARLINK-5467,1 55660U 23021AJ  23270.39815799 -.00000842  00000-0 -62764-4 0  9990,2 55660  69.9993 259.4669 0002925 270.0339  90.0484 14.98326503 35321,6950.204,96.107,574.102,570.036,0.0
55660.0,STARLINK-5467,PAYLOAD,2023-09-28 03:10:49,14.98330361,0.0002934,69.9994,257.6154,270.1305,89.9517,-4.3584e-05,-6.13e-06,0.0,0 STARLINK-5467,1 55660U 23021AJ  23271.13251514 -.00000613  00000-0 -43584-4 0  9997,2 55660  69.9994 257.6154 0002934 270.1305  89.9517 14.98330361 35135,6950.192,96.107,574.096,570.018,0.0
55660.0,STARLINK-5467,PAYLOAD,2023-09-28 09:35:21,14.98332702,0.000291,69.9994,256.9428,267.3904,92.6922,-3.3762e-05,-4.96e-06,0.0,0 STARLINK-5467,1 55660U 23021AJ  23271.39955301 -.00000496  00000-0 -33762-4 0  9996,2 55660  69.9994 256.9428 0002910 267.3904  92.6922 14.98332702 35477,6950.185,96.107,574.072,570.027,0.0
